[{"OBJECT_NAME":"SCS-01 F","OBJECT_ID":"2025-100F","EPOCH":"2026-03-09T22:02:58.148448","MEAN_MOTION":15.20887248,"ECCENTRICITY":0.00088681,"INCLINATION":97.3705,"RA_OF_ASC_NODE":143.8729,"ARG_OF_PERICENTER":296.4312,"MEAN_ANOMALY":63.6013,"EPHEMERIS_TYPE":0,"CLASSIFICATION_TYPE":"U","NORAD_CAT_ID":63987,"ELEMENT_SET_NO":999,"REV_AT_EPOCH":4554,"BSTAR":0.0009265562,"MEAN_MOTION_DOT":0.0002047,"MEAN_MOTION_DDOT":0},{"OBJECT_NAME":"FENGYUN 1C DEB","OBJECT_ID":"1999-025ELG","EPOCH":"2026-02-16T12:48:31.445856","MEAN_MOTION":14.60850134,"ECCENTRICITY":0.0269289,"INCLINATION":98.3705,"RA_OF_ASC_NODE":316.8342,"ARG_OF_PERICENTER":306.6389,"MEAN_ANOMALY":51.0321,"EPHEMERIS_TYPE":0,"CLASSIFICATION_TYPE":"U","NORAD_CAT_ID":37691,"ELEMENT_SET_NO":999,"REV_AT_EPOCH":86593,"BSTAR":0.0030884,"MEAN_MOTION_DOT":0.00025342,"MEAN_MOTION_DDOT":0}]
